{"type": "FeatureCollection", "features": [ {"type": "Feature", "properties": {"norad_id": 34738, "name": "COSMOS 2251 DEB", "group": "cosmos-2251-debris", "lat": -0.625257152916797, "lon": -44.171982400407735, "alt_km": 746.4546411148376, "timestamp": "2025-12-16T19:34:24.663620+00:00", "meta": {"OBJECT_NAME": "COSMOS 2251 DEB", "OBJECT_ID": "1993-036ZG", "EPOCH": "2025-12-15T20:12:01.095840", "MEAN_MOTION": 14.46309529, "ECCENTRICITY": 0.00474253, "INCLINATION": 74.0147, "RA_OF_ASC_NODE": 137.4684, "ARG_OF_PERICENTER": 283.1492, "MEAN_ANOMALY": 229.2364, "EPHEMERIS_TYPE": 0, "CLASSIFICATION_TYPE": "U", "NORAD_CAT_ID": 34738, "ELEMENT_SET_NO": 999, "REV_AT_EPOCH": 87903, "BSTAR": 0.00032052365, "MEAN_MOTION_DOT": 1.137e-05, "MEAN_MOTION_DDOT": 0}, "tle": {"line1": "1 34738U 93036ZG  25349.84167935  .00001137  00000+0  32052-3 0  9998", "line2": "2 34738  74.0147 137.4684 0047425 283.1492 229.2364 14.46309529879032"}}, "geometry": {"type": "Point", "coordinates": [-44.171982400407735, -0.625257152916797]}}, {"type": "Feature", "properties": {"norad_id": 34750, "name": "COSMOS 2251 DEB", "group": "cosmos-2251-debris", "lat": -18.88717746868131, "lon": 19.586248351645107, "alt_km": 677.262028745824, "timestamp": "2025-12-16T19:34:24.663632+00:00", "meta": {"OBJECT_NAME": "COSMOS 2251 DEB", "OBJECT_ID": "1993-036ZU", "EPOCH": "2025-12-15T00:37:57.758016", "MEAN_MOTION": 14.613483, "ECCENTRICITY": 0.00387268, "INCLINATION": 74.1079, "RA_OF_ASC_NODE": 197.3978, "ARG_OF_PERICENTER": 149.7271, "MEAN_ANOMALY": 0.6054, "EPHEMERIS_TYPE": 0, "CLASSIFICATION_TYPE": "U", "NORAD_CAT_ID": 34750, "ELEMENT_SET_NO": 999, "REV_AT_EPOCH": 88264, "BSTAR": 0.00069274204, "MEAN_MOTION_DOT": 3.432e-05, "MEAN_MOTION_DDOT": 0}, "tle": {"line1": "1 34750U 93036ZU  25349.02636294  .00003432  00000+0  69274-3 0  9997", "line2": "2 34750  74.1079 197.3978 0038726 149.7271   0.6054 14.61348300882643"}}, "geometry": {"type": "Point", "coordinates": [19.586248351645107, -18.88717746868131]}}, {"type": "Feature", "properties": {"norad_id": 34752, "name": "COSMOS 2251 DEB", "group": "cosmos-2251-debris", "lat": -6.911826383792976, "lon": 174.30222796196875, "alt_km": 557.5857275534299, "timestamp": "2025-12-16T19:34:24.663643+00:00", "meta": {"OBJECT_NAME": "COSMOS 2251 DEB", "OBJECT_ID": "1993-036ZW", "EPOCH": "2025-12-15T10:43:59.268000", "MEAN_MOTION": 14.99998384, "ECCENTRICITY": 0.0047576, "INCLINATION": 74.0135, "RA_OF_ASC_NODE": 355.0943, "ARG_OF_PERICENTER": 122.7305, "MEAN_ANOMALY": 237.8482, "EPHEMERIS_TYPE": 0, "CLASSIFICATION_TYPE": "U", "NORAD_CAT_ID": 34752, "ELEMENT_SET_NO": 999, "REV_AT_EPOCH": 89890, "BSTAR": 0.00065261311, "MEAN_MOTION_DOT": 8.281e-05, "MEAN_MOTION_DDOT": 0}, "tle": {"line1": "1 34752U 93036ZW  25349.44721375  .00008281  00000+0  65261-3 0  9999", "line2": "2 34752  74.0135 355.0943 0047576 122.7305 237.8482 14.99998384898903"}}, "geometry": {"type": "Point", "coordinates": [174.30222796196875, -6.911826383792976]}}, {"type": "Feature", "properties": {"norad_id": 34754, "name": "COSMOS 2251 DEB", "group": "cosmos-2251-debris", "lat": 7.967587743741687, "lon": -137.63877244745606, "alt_km": 740.6365680277759, "timestamp": "2025-12-16T19:34:24.663653+00:00", "meta": {"OBJECT_NAME": "COSMOS 2251 DEB", "OBJECT_ID": "1993-036ZY", "EPOCH": "2025-12-15T15:20:23.144928", "MEAN_MOTION": 14.40485758, "ECCENTRICITY": 0.0029682, "INCLINATION": 74.0299, "RA_OF_ASC_NODE": 222.2395, "ARG_OF_PERICENTER": 337.8117, "MEAN_ANOMALY": 52.3169, "EPHEMERIS_TYPE": 0, "CLASSIFICATION_TYPE": "U", "NORAD_CAT_ID": 34754, "ELEMENT_SET_NO": 999, "REV_AT_EPOCH": 88175, "BSTAR": 0.00020355546, "MEAN_MOTION_DOT": 6.24e-06, "MEAN_MOTION_DDOT": 0}, "tle": {"line1": "1 34754U 93036ZY  25349.63915677  .00000624  00000+0  20356-3 0  9991", "line2": "2 34754  74.0299 222.2395 0029682 337.8117  52.3169 14.40485758881759"}}, "geometry": {"type": "Point", "coordinates": [-137.63877244745606, 7.967587743741687]}}, {"type": "Feature", "properties": {"norad_id": 34755, "name": "COSMOS 2251 DEB", "group": "cosmos-2251-debris", "lat": -51.13625950867284, "lon": 124.43822998453476, "alt_km": 954.6722619301681, "timestamp": "2025-12-16T19:34:24.663664+00:00", "meta": {"OBJECT_NAME": "COSMOS 2251 DEB", "OBJECT_ID": "1993-036ZZ", "EPOCH": "2025-12-15T12:45:24.180768", "MEAN_MOTION": 13.50566127, "ECCENTRICITY": 0.04082662, "INCLINATION": 73.9259, "RA_OF_ASC_NODE": 285.5372, "ARG_OF_PERICENTER": 304.8647, "MEAN_ANOMALY": 172.7755, "EPHEMERIS_TYPE": 0, "CLASSIFICATION_TYPE": "U", "NORAD_CAT_ID": 34755, "ELEMENT_SET_NO": 999, "REV_AT_EPOCH": 82561, "BSTAR": 0.00098242493, "MEAN_MOTION_DOT": 1.036e-05, "MEAN_MOTION_DDOT": 0}, "tle": {"line1": "1 34755U 93036ZZ  25349.53152987  .00001036  00000+0  98242-3 0  9995", "line2": "2 34755  73.9259 285.5372 0408266 304.8647 172.7755 13.50566127825613"}}, "geometry": {"type": "Point", "coordinates": [124.43822998453476, -51.13625950867284]}}, {"type": "Feature", "properties": {"norad_id": 34756, "name": "COSMOS 2251 DEB", "group": "cosmos-2251-debris", "lat": 30.829764011073195, "lon": 107.52584888725436, "alt_km": 872.2234849673723, "timestamp": "2025-12-16T19:34:24.663675+00:00", "meta": {"OBJECT_NAME": "COSMOS 2251 DEB", "OBJECT_ID": "1993-036AAA", "EPOCH": "2025-12-15T06:32:55.960224", "MEAN_MOTION": 13.67249099, "ECCENTRICITY": 0.03452085, "INCLINATION": 74.003, "RA_OF_ASC_NODE": 100.2039, "ARG_OF_PERICENTER": 335.4696, "MEAN_ANOMALY": 23.0321, "EPHEMERIS_TYPE": 0, "CLASSIFICATION_TYPE": "U", "NORAD_CAT_ID": 34756, "ELEMENT_SET_NO": 999, "REV_AT_EPOCH": 83456, "BSTAR": 0.001012609, "MEAN_MOTION_DOT": 1.26e-05, "MEAN_MOTION_DDOT": 0}, "tle": {"line1": "1 34756U 93036AAA 25349.27286991  .00001260  00000+0  10126-2 0  9993", "line2": "2 34756  74.0030 100.2039 0345208 335.4696  23.0321 13.67249099834561"}}, "geometry": {"type": "Point", "coordinates": [107.52584888725436, 30.829764011073195]}}, {"type": "Feature", "properties": {"norad_id": 34758, "name": "COSMOS 2251 DEB", "group": "cosmos-2251-debris", "lat": 3.3104956770393366, "lon": -66.1176979153081, "alt_km": 864.4413349510805, "timestamp": "2025-12-16T19:34:24.663685+00:00", "meta": {"OBJECT_NAME": "COSMOS 2251 DEB", "OBJECT_ID": "1993-036AAC", "EPOCH": "2025-12-15T13:30:14.961024", "MEAN_MOTION": 13.580782, "ECCENTRICITY": 0.03814729, "INCLINATION": 74.1074, "RA_OF_ASC_NODE": 294.9538, "ARG_OF_PERICENTER": 58.0073, "MEAN_ANOMALY": 305.7517, "EPHEMERIS_TYPE": 0, "CLASSIFICATION_TYPE": "U", "NORAD_CAT_ID": 34758, "ELEMENT_SET_NO": 999, "REV_AT_EPOCH": 82948, "BSTAR": 0.0015175801, "MEAN_MOTION_DOT": 1.747e-05, "MEAN_MOTION_DDOT": 0}, "tle": {"line1": "1 34758U 93036AAC 25349.56267316  .00001747  00000+0  15176-2 0  9997", "line2": "2 34758  74.1074 294.9538 0381472  58.0073 305.7517 13.58078200829483"}}, "geometry": {"type": "Point", "coordinates": [-66.1176979153081, 3.3104956770393366]}}, {"type": "Feature", "properties": {"norad_id": 34760, "name": "COSMOS 2251 DEB", "group": "cosmos-2251-debris", "lat": 71.19975152918956, "lon": -7.8480586145729205, "alt_km": 823.3057375383623, "timestamp": "2025-12-16T19:34:24.663698+00:00", "meta": {"OBJECT_NAME": "COSMOS 2251 DEB", "OBJECT_ID": "1993-036AAE", "EPOCH": "2025-12-15T15:17:34.568160", "MEAN_MOTION": 14.19579445, "ECCENTRICITY": 0.00969523, "INCLINATION": 74.0638, "RA_OF_ASC_NODE": 297.1884, "ARG_OF_PERICENTER": 348.6722, "MEAN_ANOMALY": 190.5489, "EPHEMERIS_TYPE": 0, "CLASSIFICATION_TYPE": "U", "NORAD_CAT_ID": 34760, "ELEMENT_SET_NO": 999, "REV_AT_EPOCH": 86729, "BSTAR": 0.00062937679, "MEAN_MOTION_DOT": 1.367e-05, "MEAN_MOTION_DDOT": 0}, "tle": {"line1": "1 34760U 93036AAE 25349.63720565  .00001367  00000+0  62938-3 0  9995", "line2": "2 34760  74.0638 297.1884 0096952 348.6722 190.5489 14.19579445867299"}}, "geometry": {"type": "Point", "coordinates": [-7.8480586145729205, 71.19975152918956]}}, {"type": "Feature", "properties": {"norad_id": 34761, "name": "COSMOS 2251 DEB", "group": "cosmos-2251-debris", "lat": -74.00734171471602, "lon": -97.01975396588828, "alt_km": 784.3873941751563, "timestamp": "2025-12-16T19:34:24.663708+00:00", "meta": {"OBJECT_NAME": "COSMOS 2251 DEB", "OBJECT_ID": "1993-036AAF", "EPOCH": "2025-12-15T10:36:07.110144", "MEAN_MOTION": 14.38059333, "ECCENTRICITY": 0.00365415, "INCLINATION": 74.0294, "RA_OF_ASC_NODE": 357.8121, "ARG_OF_PERICENTER": 31.0726, "MEAN_ANOMALY": 329.2578, "EPHEMERIS_TYPE": 0, "CLASSIFICATION_TYPE": "U", "NORAD_CAT_ID": 34761, "ELEMENT_SET_NO": 999, "REV_AT_EPOCH": 87688, "BSTAR": 0.00051561114, "MEAN_MOTION_DOT": 1.548e-05, "MEAN_MOTION_DDOT": 0}, "tle": {"line1": "1 34761U 93036AAF 25349.44174896  .00001548  00000+0  51561-3 0  9996", "line2": "2 34761  74.0294 357.8121 0036541  31.0726 329.2578 14.38059333876886"}}, "geometry": {"type": "Point", "coordinates": [-97.01975396588828, -74.00734171471602]}}, {"type": "Feature", "properties": {"norad_id": 34784, "name": "COSMOS 2251 DEB", "group": "cosmos-2251-debris", "lat": 61.468940129137444, "lon": 104.71567555348055, "alt_km": 650.0139446487447, "timestamp": "2025-12-16T19:34:24.663718+00:00", "meta": {"OBJECT_NAME": "COSMOS 2251 DEB", "OBJECT_ID": "1993-036AAM", "EPOCH": "2025-12-15T21:41:19.154688", "MEAN_MOTION": 14.60794779, "ECCENTRICITY": 0.00493178, "INCLINATION": 74.0072, "RA_OF_ASC_NODE": 318.2994, "ARG_OF_PERICENTER": 126.6986, "MEAN_ANOMALY": 233.8726, "EPHEMERIS_TYPE": 0, "CLASSIFICATION_TYPE": "U", "NORAD_CAT_ID": 34784, "ELEMENT_SET_NO": 999, "REV_AT_EPOCH": 88581, "BSTAR": 0.00037402456, "MEAN_MOTION_DOT": 1.827e-05, "MEAN_MOTION_DDOT": 0}, "tle": {"line1": "1 34784U 93036AAM 25349.90369392  .00001827  00000+0  37402-3 0  9997", "line2": "2 34784  74.0072 318.2994 0049317 126.6986 233.8726 14.60794779885811"}}, "geometry": {"type": "Point", "coordinates": [104.71567555348055, 61.468940129137444]}}]}